NORAD_CAT_ID,OBJECT_NAME,OBJECT_TYPE,EPOCH,MEAN_MOTION,ECCENTRICITY,INCLINATION,RA_OF_ASC_NODE,ARG_OF_PERICENTER,MEAN_ANOMALY,BSTAR,MEAN_MOTION_DOT,MEAN_MOTION_DDOT,TLE_LINE0,TLE_LINE1,TLE_LINE2,SEMIMAJOR_AXIS,PERIOD,APOGEE,PERIGEE,DECAYED
53913.0,STARLINK-5053,PAYLOAD,2023-10-09 08:41:53,15.08851954,0.00016,53.2169,315.0251,89.5804,270.5372,0.00039964,6.08e-05,0.0,0 STARLINK-5053,1 53913U 22119AD  23282.36242827  .00006080  00000-0  39964-3 0  9995,2 53913  53.2169 315.0251 0001600  89.5804 270.5372 15.08851954 58204,6917.844,95.437,540.816,538.602,0.0
53913.0,STARLINK-5053,PAYLOAD,2023-10-10 02:11:08,15.08844594,0.0001532,53.2158,311.7545,86.6526,273.4641,0.00017465,2.493e-05,0.0,0 STARLINK-5053,1 53913U 22119AD  23283.09106954  .00002493  00000-0  17465-3 0  9992,2 53913  53.2158 311.7545 0001532  86.6526 273.4641 15.08844594 58319,6917.866,95.437,540.791,538.672,0.0
53913.0,STARLINK-5053,PAYLOAD,2023-10-10 08:32:40,15.08848376,0.0001599,53.2169,310.5642,97.0569,263.0605,0.00018447,2.65e-05,0.0,0 STARLINK-5053,1 53913U 22119AD  23283.35602718  .00002650  00000-0  18447-3 0  9996,2 53913  53.2169 310.5642 0001599  97.0569 263.0605 15.08848376 58779,6917.855,95.437,540.826,538.614,0.0
53913.0,STARLINK-5053,PAYLOAD,2023-10-11 02:01:55,15.08837353,0.0001659,53.2164,307.2929,95.7981,264.32,6.0272e-06,-1.92e-06,0.0,0 STARLINK-5053,1 53913U 22119AD  23284.08467360 -.00000192  00000-0  60272-5 0  9994,2 53913  53.2164 307.2929 0001659  95.7981 264.3200 15.08837353 58469,6917.888,95.438,540.901,538.606,0.0
53913.0,STARLINK-5053,PAYLOAD,2023-10-11 08:23:28,15.08837453,0.0001582,53.2165,306.1037,87.8513,272.2661,2.3068e-05,7.9e-07,0.0,0 STARLINK-5053,1 53913U 22119AD  23284.34963484  .00000079  00000-0  23068-4 0  9995,2 53913  53.2165 306.1037 0001582  87.8513 272.2661 15.08837453 58927,6917.888,95.438,540.848,538.659,0.0
53913.0,STARLINK-5053,PAYLOAD,2023-10-12 08:14:15,15.08851579,0.0001521,53.2167,301.6425,90.3096,269.807,0.00027409,4.078e-05,0.0,0 STARLINK-5053,1 53913U 22119AD  23285.34322959  .00004078  00000-0  27409-3 0  9997,2 53913  53.2167 301.6425 0001521  90.3096 269.8070 15.08851579 58659,6917.845,95.437,540.762,538.658,0.0
53913.0,STARLINK-5053,PAYLOAD,2023-10-12 17:46:34,15.0883885,0.0002006,53.2168,299.858,93.5959,266.5262,7.636e-05,9.27e-06,0.0,0 STARLINK-5053,1 53913U 22119AD  23285.74067727  .00000927  00000-0  76360-4 0  9990,2 53913  53.2168 299.8580 0002006  93.5959 266.5262 15.08838850 58713,6917.884,95.438,541.137,538.361,0.0
53913.0,STARLINK-5053,PAYLOAD,2023-10-13 08:05:02,15.08843886,0.0001773,53.2175,297.1858,101.5426,258.5766,0.00024355,3.591e-05,0.0,0 STARLINK-5053,1 53913U 22119AD  23286.33683611  .00003591  00000-0  24355-3 0  9998,2 53913  53.2175 297.1858 0001773 101.5426 258.5766 15.08843886 59221,6917.869,95.437,540.96,538.507,0.0
53913.0,STARLINK-5053,PAYLOAD,2023-10-13 17:37:21,15.08849441,0.0001577,53.2163,295.3985,89.5308,270.5865,0.00020609,2.994e-05,0.0,0 STARLINK-5053,1 53913U 22119AD  23286.73427159  .00002994  00000-0  20609-3 0  9999,2 53913  53.2163 295.3985 0001577  89.5308 270.5865 15.08849441 59288,6917.852,95.437,540.807,538.626,0.0
53913.0,STARLINK-5053,PAYLOAD,2023-10-14 09:31:12,15.08849071,0.0001972,53.2175,292.425,91.7799,268.3419,0.00017048,2.427e-05,0.0,0 STARLINK-5053,1 53913U 22119AD  23287.39667185  .00002427  00000-0  17048-3 0  9991,2 53913  53.2175 292.4250 0001972  91.7799 268.3419 15.08849071 58965,6917.853,95.437,541.082,538.353,0.0
53913.0,STARLINK-5053,PAYLOAD,2023-10-14 17:28:08,15.08834319,0.0002041,53.2164,290.941,88.7673,271.3553,-7.4864e-05,-1.479e-05,0.0,0 STARLINK-5053,1 53913U 22119AD  23287.72787892 -.00001479  00000-0 -74864-4 0  9994,2 53913  53.2164 290.9410 0002041  88.7673 271.3553 15.08834319 59018,6917.898,95.438,541.175,538.351,0.0
53913.0,STARLINK-5053,PAYLOAD,2023-10-15 09:22:00,15.08827739,0.0001827,53.2177,287.9625,95.442,264.6781,-8.7011e-05,-1.672e-05,0.0,0 STARLINK-5053,1 53913U 22119AD  23288.39028664 -.00001672  00000-0 -87011-4 0  9996,2 53913  53.2177 287.9625 0001827  95.4420 264.6781 15.08827739 59119,6917.918,95.438,541.047,538.519,0.0
53913.0,STARLINK-5053,PAYLOAD,2023-10-15 17:18:56,15.08836314,0.0001781,53.2181,286.4795,91.9436,268.1761,-2.2038e-05,-6.39e-06,0.0,0 STARLINK-5053,1 53913U 22119AD  23288.72148489 -.00000639  00000-0 -22038-4 0  9991,2 53913  53.2181 286.4795 0001781  91.9436 268.1761 15.08836314 59164,6917.892,95.438,540.989,538.525,0.0
53913.0,STARLINK-5053,PAYLOAD,2023-10-16 07:37:24,15.08851002,0.0001459,53.2159,283.8018,94.794,265.3219,0.00043404,6.629e-05,0.0,0 STARLINK-5053,1 53913U 22119AD  23289.31764075  .00006629  00000-0  43404-3 0  9994,2 53913  53.2159 283.8018 0001459  94.7940 265.3219 15.08851002 59259,6917.847,95.437,540.721,538.702,0.0
53913.0,STARLINK-5053,PAYLOAD,2023-10-16 09:12:47,15.08854437,0.00014,53.2161,283.5038,97.6551,262.46,0.00057399,8.862e-05,0.0,0 STARLINK-5053,1 53913U 22119AD  23289.38388055  .00008862  00000-0  57399-3 0  9990,2 53913  53.2161 283.5038 0001400  97.6551 262.4600 15.08854437 59681,6917.836,95.437,540.67,538.733,0.0
53913.0,STARLINK-5053,PAYLOAD,2023-10-17 09:03:34,15.08864571,0.0002202,53.2176,279.0423,78.9217,281.2023,0.00079772,0.00012439,0.0,0 STARLINK-5053,1 53913U 22119AD  23290.37748076  .00012439  00000-0  79772-3 0  9998,2 53913  53.2176 279.0423 0002202  78.9217 281.2023 15.08864571 59416,6917.805,95.436,541.194,538.147,0.0
53913.0,STARLINK-5053,PAYLOAD,2023-10-17 17:00:30,15.08846272,0.0002071,53.2181,277.556,89.2485,270.8745,0.00024941,3.684e-05,0.0,0 STARLINK-5053,1 53913U 22119AD  23290.70868443  .00003684  00000-0  24941-3 0  9996,2 53913  53.2181 277.5560 0002071  89.2485 270.8745 15.08846272 59461,6917.861,95.437,541.159,538.294,0.0
53913.0,STARLINK-5053,PAYLOAD,2023-10-18 02:32:49,15.08845372,0.0001442,53.2178,275.7736,83.3645,276.7511,0.00025747,3.813e-05,0.0,0 STARLINK-5053,1 53913U 22119AD  23291.10612293  .00003813  00000-0  25747-3 0  9990,2 53913  53.2178 275.7736 0001442  83.3645 276.7511 15.08845372 59945,6917.864,95.437,540.727,538.731,0.0
53913.0,STARLINK-5053,PAYLOAD,2023-10-18 23:12:49,15.08856349,0.0001321,53.2189,271.9087,81.9034,278.2108,0.0007058,0.00010968,0.0,0 STARLINK-5053,1 53913U 22119AD  23291.96724007  .00010968  00000-0  70580-3 0  9995,2 53913  53.2189 271.9087 0001321  81.9034 278.2108 15.08856349 60077,6917.83,95.437,540.609,538.782,0.0
53913.0,STARLINK-5053,PAYLOAD,2023-10-19 03:58:59,15.08851214,0.0001768,53.218,271.0137,89.1517,270.9678,0.00044544,6.81e-05,0.0,0 STARLINK-5053,1 53913U 22119AD  23292.16596203  .00006810  00000-0  44544-3 0  9995,2 53913  53.2180 271.0137 0001768  89.1517 270.9678 15.08851214 59688,6917.846,95.437,540.934,538.488,0.0
53913.0,STARLINK-5053,PAYLOAD,2023-10-19 08:45:08,15.08856998,0.0001593,53.2183,270.1221,85.6002,274.5173,0.00061475,9.514e-05,0.0,0 STARLINK-5053,1 53913U 22119AD  23292.36467931  .00009514  00000-0  61475-3 0  9998,2 53913  53.2183 270.1221 0001593  85.6002 274.5173 15.08856998 60137,6917.828,95.436,540.795,538.591,0.0
53913.0,STARLINK-5053,PAYLOAD,2023-10-20 02:14:22,15.08849055,0.0001542,53.2173,266.8467,100.5279,259.5887,0.00031165,4.677e-05,0.0,0 STARLINK-5053,1 53913U 22119AD  23293.09331990  .00004677  00000-0  31165-3 0  9992,2 53913  53.2173 266.8467 0001542 100.5279 259.5887 15.08849055 59822,6917.853,95.437,540.784,538.651,0.0
53913.0,STARLINK-5053,PAYLOAD,2023-10-20 08:35:55,15.08854846,0.000164,53.2178,265.6603,101.7219,258.3958,0.00042646,6.508e-05,0.0,0 STARLINK-5053,1 53913U 22119AD  23293.35827704  .00006508  00000-0  42646-3 0  9995,2 53913  53.2178 265.6603 0001640 101.7219 258.3958 15.08854846 60284,6917.835,95.437,540.835,538.565,0.0
53913.0,STARLINK-5053,PAYLOAD,2023-10-20 21:19:00,15.08834056,0.0001762,53.2176,263.2826,101.1625,258.9566,-4.2881e-05,-9.7e-06,0.0,0 STARLINK-5053,1 53913U 22119AD  23293.88820419 -.00000970  00000-0 -42881-4 0  9990,2 53913  53.2176 263.2826 0001762 101.1625 258.9566 15.08834056 60364,6917.899,95.438,540.982,538.545,0.0
53913.0,STARLINK-5053,PAYLOAD,2023-10-21 02:05:10,15.08833175,0.0002415,53.2168,262.3882,130.8721,229.2481,-6.9954e-05,-1.401e-05,0.0,0 STARLINK-5053,1 53913U 22119AD  23294.08692330 -.00001401  00000-0 -69954-4 0  9992,2 53913  53.2168 262.3882 0002415 130.8721 229.2481 15.08833175 59972,6917.901,95.438,541.437,538.096,0.0
53913.0,STARLINK-5053,PAYLOAD,2023-10-21 03:40:33,15.08832854,0.0001546,53.2176,262.0932,101.5417,258.5749,-2.5493e-05,-6.94e-06,0.0,0 STARLINK-5053,1 53913U 22119AD  23294.15316683 -.00000694  00000-0 -25493-4 0  9997,2 53913  53.2176 262.0932 0001546 101.5417 258.5749 15.08832854 60400,6917.902,95.438,540.837,538.698,0.0
53913.0,STARLINK-5053,PAYLOAD,2023-10-21 14:48:15,15.08840473,0.0001427,53.2177,260.0118,88.1658,271.9498,0.00027889,4.153e-05,0.0,0 STARLINK-5053,1 53913U 22119AD  23294.61684757  .00004153  00000-0  27889-3 0  9990,2 53913  53.2177 260.0118 0001427  88.1658 271.9498 15.08840473 60473,6917.879,95.438,540.731,538.757,0.0
53913.0,STARLINK-5053,PAYLOAD,2023-10-22 06:42:06,15.08863866,0.0001456,53.2175,257.0378,84.1686,275.9472,0.00084669,0.00013222,0.0,0 STARLINK-5053,1 53913U 22119AD  23295.27924186  .00013222  00000-0  84669-3 0  9992,2 53913  53.2175 257.0378 0001456  84.1686 275.9472 15.08863866 60156,6917.807,95.436,540.68,538.665,0.0
53913.0,STARLINK-5053,PAYLOAD,2023-10-22 14:39:02,15.08853081,0.0001863,53.2174,255.5519,76.4646,283.6554,0.00029556,4.421e-05,0.0,0 STARLINK-5053,1 53913U 22119AD  23295.61044324  .00004421  00000-0  29556-3 0  9992,2 53913  53.2174 255.5519 0001863  76.4646 283.6554 15.08853081 60208,6917.84,95.437,540.994,538.417,0.0
53913.0,STARLINK-5053,PAYLOAD,2023-10-23 03:22:07,15.08835815,0.0001362,53.2162,253.1735,79.1168,280.9977,9.9586e-05,1.297e-05,0.0,0 STARLINK-5053,1 53913U 22119AD  23296.14036736  .00001297  00000-0  99586-4 0  9998,2 53913  53.2162 253.1735 0001362  79.1168 280.9977 15.08835815 60284,6917.893,95.438,540.7,538.816,0.0
